[{"OBJECT_NAME":"SWAS","OBJECT_ID":"1998-071A","EPOCH":"2026-03-09T12:50:12.826752","MEAN_MOTION":15.08888192,"ECCENTRICITY":0.00040991,"INCLINATION":69.8952,"RA_OF_ASC_NODE":124.3662,"ARG_OF_PERICENTER":14.3215,"MEAN_ANOMALY":345.8065,"EPHEMERIS_TYPE":0,"CLASSIFICATION_TYPE":"U","NORAD_CAT_ID":25560,"ELEMENT_SET_NO":999,"REV_AT_EPOCH":48223,"BSTAR":0.00029986322,"MEAN_MOTION_DOT":4.636e-5,"MEAN_MOTION_DDOT":0},{"OBJECT_NAME":"STARLINK-3560","OBJECT_ID":"2022-022H","EPOCH":"2026-03-09T01:25:57.071712","MEAN_MOTION":15.08833754,"ECCENTRICITY":0.00013855,"INCLINATION":53.2181,"RA_OF_ASC_NODE":11.955,"ARG_OF_PERICENTER":97.902,"MEAN_ANOMALY":262.213,"EPHEMERIS_TYPE":0,"CLASSIFICATION_TYPE":"U","NORAD_CAT_ID":51859,"ELEMENT_SET_NO":999,"REV_AT_EPOCH":22306,"BSTAR":-5.9470896e-5,"MEAN_MOTION_DOT":-1.234e-5,"MEAN_MOTION_DDOT":0}]
